name,county,address,city,state,zip,lat,lng,hrs,hour_flag
Adams County Economic Development,Adams,12200 N. Pecos St,Westminster,CO,80234.0,39.9189074,-105.003778,Open 24 hours every day starting Monday; Open 24 hours every day; Open 24 hours every day,False
Adams County Government Center,Adams,4430 S Adams County Pkwy,Brighton,CO,80601.0,39.923754,-104.81292,Open 24 hours every day starting Monday; Open 24 hours every day; Open 24 hours every day,False
Adams County Human Services Center,Adams,11860 N Pecos St,Denver,CO,80234.0,39.908724,-105.005962,Open 24 hours every day starting Monday; Open 24 hours every day; Open 24 hours every day,False
Adams County Justice Center,Adams,1100 Judicial Center Dr,Brighton,CO,80601.0,39.969741,-104.76103,Open 24 hours every day starting Monday; Open 24 hours every day; Open 24 hours every day,False
Anythink Library Wright Farms,Adams,5877 E 120th Ave,Thornton,CO,80602.0,39.914481,-104.92043,Open 24 hours every day starting Monday; Open 24 hours every day; Open 24 hours every day,False
Aurora City Clerk,Adams,15151 E Alameda Pkwy,Aurora,CO,80012.0,39.71082,-104.81245,Open 24 hours every day starting Monday; Open 24 hours every day; Open 24 hours every day,False
Aurora Motor Vehicle,Adams,3449 N Chambers Rd,Aurora,CO,80011.0,39.765281,-104.81065,Open 24 hours every day starting Monday; Open 24 hours every day; Open 24 hours every day,False
Bennett Motor Vehicle,Adams,355 1st St,Bennett,CO,80102.0,39.752215,-104.43408,Open 24 hours every day starting Monday; Open 24 hours every day; Open 24 hours every day,False
Brighton City Clerk,Adams,500 S 4th Ave,Brighton,CO,80601.0,39.97888,-104.81716,Open 24 hours every day starting Monday; Open 24 hours every day; Open 24 hours every day,False
Commerce City City Clerk,Adams,7887 E 60th Ave,Commerce City,CO,80022.0,39.806088,-104.89666,Open 24 hours every day starting Monday; Open 24 hours every day; Open 24 hours every day,False
Commerce City Motor Vehicle,Adams,4201 E 72nd Ave,Commerce City,CO,80022.0,39.828368,-104.93833,Open 24 hours every day starting Monday; Open 24 hours every day; Open 24 hours every day,False
Federal Heights City Clerk,Adams,2380 W 90th Ave,Denver,CO,80260.0,39.85915,-105.01561,Open 24 hours every day starting Monday; Open 24 hours every day; Open 24 hours every day,False
Front Range Community College,Adams,3645 W 112th Ave,Westminster,CO,80031.0,39.90148,-105.037594,Open 24 hours every day starting Monday; Open 24 hours every day; Open 24 hours every day,False
Hilltop Village,Adams,13762 Colorado Blvd,Thornton,CO,80602.0,39.945472,-104.93864,Open 24 hours every day starting Monday; Open 24 hours every day; Open 24 hours every day,False
Kelver Public Library,Adams,404 E Front St,Byers,CO,80103.0,39.708327,-104.21829,Open 24 hours every day starting Monday; Open 24 hours every day; Open 24 hours every day,False
Margaret Carpenter Recreation Center,Adams,11151 Colorado Blvd,Thornton,CO,80233.0,39.89694,-104.94207,Open 24 hours every day starting Monday; Open 24 hours every day; Open 24 hours every day,False
Martin Luther King Jr. Library,Adams,9898 E Colfax Ave,Aurora,CO,80010.0,39.739561,-104.87328,Open 24 hours every day starting Monday; Open 24 hours every day; Open 24 hours every day,False
Northglenn City Clerk,Adams,11701 Community Center Dr,Northglenn,CO,80233.0,39.909612,-104.98842,Open 24 hours every day starting Monday; Open 24 hours every day; Open 24 hours every day,False
Perl Mack Community Center,Adams,7125 Mariposa St,Denver,CO,80221.0,39.825725,-105.00392,Open 24 hours every day starting Monday; Open 24 hours every day; Open 24 hours every day,False
Rotella Park,Adams,1824 Coronado Pkwy S,Thornton,CO,80229.0,39.840334,-104.96541,Open 24 hours every day starting Monday; Open 24 hours every day; Open 24 hours every day,False
Strasburg Sheriff's Substation,Adams,2550 Strasburg Rd,Strasburg,CO,80136.0,39.751839,-104.32028,Open 24 hours every day starting Monday; Open 24 hours every day; Open 24 hours every day,False
Thornton City Clerk,Adams,9500 Civic Center Dr,Thornton,CO,80229.0,39.8697,-104.98444,Open 24 hours every day starting Monday; Open 24 hours every day; Open 24 hours every day,False
Trail Winds Recreation Center,Adams,13495 Holly St,Thornton,CO,80602.0,39.941624,-104.92416,Open 24 hours every day starting Monday; Open 24 hours every day; Open 24 hours every day,False
University of Colorado Anschutz Campus,Adams,12477 E 19th Ave,Aurora,CO,80045.0,39.745935,-104.842702,Open 24 hours every day starting Monday; Open 24 hours every day; Open 24 hours every day,False
Westminster City Clerk,Adams,4800 W 92nd Ave,Westminster,CO,80031.0,39.862582,-105.0489,Open 24 hours every day starting Monday; Open 24 hours every day; Open 24 hours every day,False
Westminster Motor Vehicle,Adams,8452 N Federal Blvd,Westminster,CO,80031.0,39.850014,-105.02468,Open 24 hours every day starting Monday; Open 24 hours every day; Open 24 hours every day,False
Alamosa County Clerk,Alamosa,`8999 Independence Way, Suite 101`,Alamosa,CO,81101.0,37.4458641,-105.878483,Open 24 hours every day; Open 24 hours every day; Open 24 hours every day,False
Adams County Bennett Motor Vehicle,Arapahoe,355 1st St,Bennett,CO,80102.0,39.752215,-104.43408,Open 24 hours every day starting Monday; Open 24 hours every day; Open 24 hours every day,False
Adams County Sheriff's Substation,Arapahoe,2550 Strasburg Rd,Strasburg,CO,80136.0,39.751839,-104.32028,Open 24 hours every day starting Monday; Open 24 hours every day; Open 24 hours every day,False
Arapahoe Commnity College,Arapahoe,5900 S Santa Fe Dr,Littleton,CO,80120.0,39.608433,-105.019094,Open 24 hours every day starting Monday; Open 24 hours every day; Open 24 hours every day,False
Arapahoe County Administration Building,Arapahoe,5334 S Prince St,Littleton,CO,80120.0,39.619886,-105.01398,Not Open; Not Open; Not Open,True
Arapahoe County Administration Building,Arapahoe,5334 S Prince St,Littleton,CO,80120.0,39.619886,-105.01398,Open 24 hours every day starting Monday; Open 24 hours every day; Open 24 hours every day,False
Arapahoe County Aurora MV Office,Arapahoe,490 S Chambers Rd,Aurora,CO,80017.0,39.706525,-104.80747,Open 24 hours every day starting Monday; Open 24 hours every day; Open 24 hours every day,False
Arapahoe County CentrePoint Plaza,Arapahoe,14980 E Alameda Dr,Aurora,CO,80012.0,39.708669,-104.81457,Not Open; Not Open; Not Open,True
Arapahoe County CentrePoint Plaza,Arapahoe,14980 E Alameda Dr,Aurora,CO,80012.0,39.708669,-104.81457,Open 24 hours every day starting Monday; Open 24 hours every day; Open 24 hours every day,False
Arapahoe County Elections Facility,Arapahoe,5251 S Federal Blvd,Littleton,CO,80123.0,39.621322,-105.02952,Open 24 hours every day starting Monday; Open 24 hours every day; Open 24 hours every day,False
Arapahoe County Lima Plaza,Arapahoe,6954 S Lima St,Centennial,CO,80112.0,39.59008,-104.85628,Open 24 hours every day starting Monday; Open 24 hours every day; Open 24 hours every day,False
Aurora Center for Active Adults,Arapahoe,30 Del Mar Cir,Aurora,CO,80011.0,39.728767,-104.84697,Open 24 hours every day starting Monday; Open 24 hours every day; Open 24 hours every day,False
Beck Recreation Center,Arapahoe,800 Telluride St,Aurora,CO,80011.0,39.729471,-104.78181,Open 24 hours every day starting Monday; Open 24 hours every day; Open 24 hours every day,False
Central Recreation Center,Arapahoe,18150 E Vassar Pl,Aurora,CO,80013.0,39.668097,-104.77561,Open 24 hours every day starting Monday; Open 24 hours every day; Open 24 hours every day,False
City of Aurora,Arapahoe,15151 E Alameda Pkwy,Aurora,CO,80012.0,39.71082,-104.81245,Open 24 hours every day starting Monday; Open 24 hours every day; Open 24 hours every day,False
City of Centennial,Arapahoe,13133 E Arapahoe Rd,Centennial,CO,80112.0,39.595766,-104.83591,Open 24 hours every day starting Monday; Open 24 hours every day; Open 24 hours every day,False
City of Cherry Hills Village,Arapahoe,2450 E Quincy Ave,Cherry Hills Village,CO,80113.0,39.637189,-104.95812,Open 24 hours every day starting Monday; Open 24 hours every day; Open 24 hours every day,False
City of Glendale,Arapahoe,950 S Birch St,Glendale,CO,80246.0,39.699121,-104.9361,Open 24 hours every day starting Monday; Open 24 hours every day; Open 24 hours every day,False
City of Greenwood Village,Arapahoe,6060 S Quebec St,Greenwood Village,CO,80111.0,39.60645,-104.90326,Open 24 hours every day starting Monday; Open 24 hours every day; Open 24 hours every day,False
City of Sheridan,Arapahoe,4101 S Federal Blvd,Sheridan,CO,80110.0,39.641806,-105.02679,Open 24 hours every day starting Monday; Open 24 hours every day; Open 24 hours every day,False
Community College of Aurora - Lowry Campus,Arapahoe,710 Alton Way,Denver,CO,80230.0,39.727445,-104.879089,Open 24 hours every day starting Monday; Open 24 hours every day; Open 24 hours every day,False
Community College of Aurora- CentreTech Campus,Arapahoe,16000 E Centretech Pkwy,Aurora,CO,80011.0,39.717889,-104.802707,Open 24 hours every day starting Monday; Open 24 hours every day; Open 24 hours every day,False
Deer Trail Town Hall,Arapahoe,555 2nd Ave,Deer Trail,CO,80105.0,39.613509,-104.04535,Open 24 hours every day starting Monday; Open 24 hours every day; Open 24 hours every day,False
Eloise May Library,Arapahoe,1471 S Parker Rd,Denver,CO,80231.0,39.689899,-104.8911,Open 24 hours every day starting Monday; Open 24 hours every day; Open 24 hours every day,False
Englewood Civic Center,Arapahoe,1000 Englewood Pkwy,Englewood,CO,80110.0,39.65466,-104.99919,Open 24 hours every day starting Monday; Open 24 hours every day; Open 24 hours every day,False
Goodson Recreation Center,Arapahoe,6315 S University Blvd,Centennial,CO,80121.0,39.602682,-104.9619,Open 24 hours every day starting Monday; Open 24 hours every day; Open 24 hours every day,False
Heather Gardens Clubhouse,Arapahoe,2888 S Heather Gardens Way,Aurora,CO,80014.0,39.663455,-104.83051,Open 24 hours every day starting Monday; Open 24 hours every day; Open 24 hours every day,False
Kelver Public Library,Arapahoe,404 E Front St,Byers,CO,80103.0,39.708327,-104.21829,Open 24 hours every day starting Monday; Open 24 hours every day; Open 24 hours every day,False
Martin Luther King Jr. Library,Arapahoe,9898 E Colfax Ave,Aurora,CO,80010.0,39.739561,-104.87328,Open 24 hours every day starting Monday; Open 24 hours every day; Open 24 hours every day,False
Mission Viejo library,Arapahoe,15324 E Hampden Cir,Aurora,CO,80013.0,39.650595,-104.8094,Open 24 hours every day starting Monday; Open 24 hours every day; Open 24 hours every day,False
Smoky Hill Library,Arapahoe,5430 S Biscay Cir,Centennial,CO,80015.0,39.617941,-104.76761,Not Open; Not Open; Not Open,True
Smoky Hill Library,Arapahoe,5430 S Biscay Cir,Centennial,CO,80015.0,39.617941,-104.76761,Open 24 hours every day starting Monday; Open 24 hours every day; Open 24 hours every day,False
Tallyn's Reach Library,Arapahoe,23911 E Arapahoe Rd,Aurora,CO,80016.0,39.589936,-104.7088,Open 24 hours every day starting Monday; Open 24 hours every day; Open 24 hours every day,False
Utah Indoor Pool,Arapahoe,1800 S Peoria St,Aurora,CO,80012.0,39.684089,-104.84636,Open 24 hours every day starting Monday; Open 24 hours every day; Open 24 hours every day,False
Archuleta County Courthouse,Archuleta,449 San Juan St,Pagosa Springs,CO,81147.0,37.266104,-107.01187,Not Open; Not Open; Open 24 hours every day starting Monday,True
Baca County Courthouse,Baca,741 Main St,Springfield,CO,81073.0,37.406543,-102.61669,Not Open; Not Open; Open 24 hours every day starting Monday,True
Bent County Courthouse,Bent,725 Bent Ave,Las Animas,CO,81054.0,38.065626,-103.22014,Open 24 hours every day starting Monday; Open 24 hours every day; Open 24 hours every day,False
Boulder County Clerk & Recorder,Boulder,1750 33rd St,Boulder,CO,80301.0,40.017605,-105.24922,Open 24 hours every day starting Monday; Open 24 hours every day; Open 24 hours every day,False
Boulder County Clerk & Recorder - St. Vrain Community Hub,Boulder,Corner of 6th Ave and Coffman,Longmont,CO,80501.0,40.1690133,-105.1038171,Open 24 hours every day starting Monday; Open 24 hours every day; Open 24 hours every day,False
Boulder County Courthouse - East Wing Entrance,Boulder,2025 14th,Boulder,CO,80302.0,40.01868,-105.27764,Open 24 hours every day starting Monday; Open 24 hours every day; Open 24 hours every day,False
Boulder County Fairgrounds,Boulder,9595 Nelson Rd,Longmont,CO,80501.0,40.155556,-105.12903,Open 24 hours every day starting Monday; Open 24 hours every day; Open 24 hours every day,False
Boulder County Housing and Human Services,Boulder,Corner of Broadway and Iris,Boulder,CO,80304.0,40.036417,-105.28207,Open 24 hours every day starting Monday; Open 24 hours every day; Open 24 hours every day,False
CU Campus - (UMC) - Closest to Euclid Avenue Entrance,Boulder,1669 Euclid Ave,Boulder,CO,80309.0,40.006575,-105.27147,Open 24 hours every day starting Monday; Open 24 hours every day; Open 24 hours every day,False
Front Range Community College - Classroom Bldg (C1 Door),Boulder,2121 Miller Dr,Longmont,CO,80501.0,40.139061,-105.127447,Open 24 hours every day starting Monday; Open 24 hours every day; Open 24 hours every day,False
Garden Acres Park,Boulder,18th Ave between Sunset and Juniper Streets,Longmont,CO,80501.0,40.191465,-105.121331,Open 24 hours every day starting Monday; Open 24 hours every day; Open 24 hours every day,False
Lafayette Public Library,Boulder,775 W Baseline Rd,Lafayette,CO,80026.0,40.000801,-105.099512,Open 24 hours every day starting Monday; Open 24 hours every day; Open 24 hours every day,False
Louisville Police Dept,Boulder,992 W Via Appia Way,Louisville,CO,80027.0,39.972475,-105.16355,Open 24 hours every day starting Monday; Open 24 hours every day; Open 24 hours every day,False
Lyons Town Hall,Boulder,432 5th Ave,Lyons,CO,80540.0,40.223279,-105.27105,Open 24 hours every day starting Monday; Open 24 hours every day; Open 24 hours every day,False
Nederland Community Center,Boulder,750 N CO Highway 72,Nederland,CO,80466.0,39.964705,-105.512213,Open 24 hours every day starting Monday; Open 24 hours every day; Open 24 hours every day,False
South Boulder Recreation Center,Boulder,1360 Gillaspie,Boulder,CO,80305.0,39.974524,-105.2486,Open 24 hours every day starting Monday; Open 24 hours every day; Open 24 hours every day,False
Star Meadows Park,Boulder,777 Flatiron Meadows Bd,Erie,CO,80516.0,40.032923,-105.084993,Open 24 hours every day starting Monday; Open 24 hours every day; Open 24 hours every day,False
Superior Town Hall,Boulder,124 E Coal Creek Dr,Superior,CO,80027.0,39.95358,-105.16606,Open 24 hours every day starting Monday; Open 24 hours every day; Open 24 hours every day,False
YMCA,Boulder,950 Lashley St,Longmont,CO,80501.0,40.174969,-105.08739,Open 24 hours every day starting Monday; Open 24 hours every day; Open 24 hours every day,False
Anthem Ranch Gate House,Broomfield,16591 Lowell Blvd,Broomfield,CO,80023.0,39.996689,-105.03958,Open 24 hours every day starting Monday; Open 24 hours every day; Open 24 hours every day,False
Broomfield City and County Building,Broomfield,1 Descombes Dr,Broomfield,CO,80020.0,39.92016,-105.0691,Open 24 hours every day; Open 24 hours every day; Open 24 hours every day,False
Flatirons Mall,Broomfield,170 E Flatiron Crossing Dr,Broomfield,CO,80021.0,39.932115,-105.12478,Open 24 hours every day starting Monday; Open 24 hours every day; Open 24 hours every day,False
Paul Derda Recreation Center,Broomfield,13201 Lowell Blvd,Broomfield,CO,80020.0,39.934413,-105.03626,Open 24 hours every day starting Monday; Open 24 hours every day; Open 24 hours every day,False
Redpoint Ridge Park at Arista,Broomfield,11337 Central Ct,Broomfield,CO,80021.0,39.903304,-105.08877,Open 24 hours every day starting Monday; Open 24 hours every day; Open 24 hours every day,False
Buena Vista Motor Vehicle Office,Chaffee,112 Linderman Ave,Buena Vista,CO,81211.0,38.840885,-106.13333,Open 24 hours every day starting Monday; Open 24 hours every day; Open 24 hours every day,False
Salida Clerk's Office,Chaffee,104 Crestone Ave,Salida,CO,81201.0,38.537561,-105.99827,Open 24 hours every day starting Monday; Open 24 hours every day; Open 24 hours every day,False
Cheyenne County Court House,Cheyenne,51 S 1st St,Cheyenne Wells,CO,80810.0,38.820786,-102.34892,Not Open; Not Open; Open 24 hours every day starting Tuesday,True
Kit Carson City Hall,Cheyenne,301 Main St,Kit Carson,CO,80825.0,38.764206,-102.792,Not Open; Not Open; Open 24 hours every day starting Tuesday,True
Clear Creek County Clerk's Office,Clear Creek,405 Argentine St,Georgetown,CO,80444.0,39.705137,-105.69908,Open 24 hours every day starting Monday; Open 24 hours every day; Open 24 hours every day,False
Clear Creek County Clerk's Office,Clear Creek,405 Argentine St,Georgetown,CO,80444.0,39.705137,-105.69908,Open Monday-Friday 8:30am-4:30pm; Open Monday-Friday 8:30am-4:30pm; Open Monday-Friday 8:30am-4:30pm and Saturday 9am-1pm,True
Evergreen Library,Clear Creek,5000 County Hwy 73,Evergreen,CO,80439.0,39.625171,-105.32355,Open 24 hours every day starting Monday; Open 24 hours every day; Open 24 hours every day,False
Idaho Springs City Hall,Clear Creek,1711 Miner St,Idaho Springs,CO,80452.0,39.741849,-105.5144,Open 24 hours every day starting Monday; Open 24 hours every day; Open 24 hours every day,False
King-Murphy Elementary School,Clear Creek,425 Circle K Ranch Rd,Evergreen,CO,80439.0,39.647367,-105.41615,Open 24 hours every day starting Monday; Open 24 hours every day; Open 24 hours every day,False
Conejos County Clerk and Recorder's Office,Conejos,6683 County Rd 13,Conejos,CO,81129.0,37.089211,-106.01991,Not Open; Not Open; Open 24 hours every day,True
Conejos County Clerk and Recorder's Office,Conejos,6683 County Rd 13,Conejos,CO,81129.0,37.089211,-106.01991,Not Open; Not Open; Open 24 hours every day starting Monday,True
La Jara Town Hall,Conejos,221 Broadway,La Jara,CO,81140.0,37.274138,-105.95994,Not Open; Not Open; Open Monday-Friday 8am-5pm,True
Blanca Town Hall,Costilla,601 Main St,Blanca,CO,81123.0,37.435392,-105.51199,Not Open; Not Open; Open 24 hours every day starting Monday,True
Crowley Clerk's Office,Crowley,631 Main St,Ordway,CO,81063.0,38.222017,-103.75653,Not Open; Open 24 hours every day starting Monday; Open 24 hours every day,True
Custer County Courthouse,Custer,205 S 6th St,Westcliffe,CO,81252.0,38.134323,-105.46363,Open 24 hours every day starting Monday; Open 24 hours every day; Open 24 hours every day,False
Wetmore Community Library,Custer,95 County Road 393,Wetmore,CO,81253.0,38.236959,-105.08609,Not Open; Not Open; Open Saturday 8am-12pm,True
Cedaredge Library,Delta,180 SW 6th Ave,Cedaredge,CO,81413.0,38.895512,-107.92728,Open 24 hours every day starting Monday; Open 24 hours every day; Open 24 hours every day,False
Delta County Courthouse,Delta,501 Palmer St,Delta,CO,81416.0,38.739908,-108.07251,Open 24 hours every day starting Monday; Open 24 hours every day; Open 24 hours every day,False
North Fork Annex,Delta,196 W Hotchkiss Ave,Hotchkiss,CO,81419.0,38.798303,-107.72215,Open 24 hours every day starting Monday; Open 24 hours every day; Open 24 hours every day,False
Paonia Town Hall,Delta,214 Grand Ave,Paonia,CO,81428.0,38.86757,-107.59821,Open 24 hours every day starting Monday; Open 24 hours every day; Open 24 hours every day,False
Athmar Recreation Center,Denver,2680 W Mexico Ave,Denver,CO,80219.0,39.685614,-105.019793,Open 24 hours every day starting Monday; Open 24 hours every day; Open 24 hours every day,False
Barnum Recreation Center,Denver,360 Hooker St,Denver,CO,80219.0,39.722334,-105.02865,Open 24 hours every day starting Monday; Open 24 hours every day; Open 24 hours every day,False
Bear Valley Branch Library,Denver,5171 W Dartmouth Ave,Denver,CO,80236.0,39.656551,-105.05147,Open 24 hours every day starting Monday; Open 24 hours every day; Open 24 hours every day,False
Blair-Caldwell Library,Denver,2401 Welton St,Denver,CO,80205.0,39.752499,-104.98148,Open 24 hours every day starting Monday; Open 24 hours every day; Open 24 hours every day,False
Blair-Caldwell Library,Denver,2401 Welton St,Denver,CO,80205.0,39.752499,-104.981475,Not Open; Not Open; Open Monday-Friday 10am-6pm and Saturday 10am-2pm,True
Calvary Baptist Church of Denver,Denver,6500 E Girard Ave,Denver,CO,80224.0,39.65369,-104.911985,Not Open; Not Open; Open Monday-Friday 10am-6pm and Saturday 10am-2pm,True
Carla Madison Recreation Center,Denver,2401 E Colfax Ave,Denver,CO,80206.0,39.740421,-104.95852,Open 24 hours every day starting Monday; Open 24 hours every day; Open 24 hours every day,False
Central Park Recreation Center,Denver,9651 E Martin Luther King Jr Blvd,Denver,CO,80238.0,39.760949,-104.87505,Open 24 hours every day starting Monday; Open 24 hours every day; Open 24 hours every day,False
Christ United Methodist Church,Denver,690 N Colorado Blvd,Denver,CO,80206.0,39.726925,-104.940291,Not Open; Not Open; Open Monday-Friday 10am-6pm and Saturday 10am-2pm,True
Cook Park Recreation Center,Denver,7100 E Cherry Creek South Dr,Denver,CO,80224.0,39.686996,-104.90862,Open 24 hours every day starting Monday; Open 24 hours every day; Open 24 hours every day,False
Denver Botanic Gardens,Denver,1007 N York St,Denver,CO,80206.0,39.732007,-104.96272,Open 24 hours every day starting Monday; Open 24 hours every day; Open 24 hours every day,False
Denver Elections Division,Denver,200 W 14th Ave,Denver,CO,80203.0,39.738094,-104.99067,Open 24 hours every day starting Monday; Open 24 hours every day; Open 24 hours every day,False
Denver Elections Division (Main Office),Denver,200 W 14th Ave,Denver,CO,80203.0,39.738094,-104.990674,Not Open; Not Open; Open Monday-Friday 10am-6pm and Saturday 10am-2pm,True
Denver Human Services,Denver,1200 N Federal Blvd,Denver,CO,80204.0,39.735184,-105.02413,Open 24 hours every day starting Monday; Open 24 hours every day; Open 24 hours every day,False
Denver Museum of Nature and Science,Denver,2001 N Colorado Blvd,Denver,CO,80205.0,39.7492,-104.94547,Open 24 hours every day starting Monday; Open 24 hours every day; Open 24 hours every day,False
Denver Police Department District 1,Denver,1311 W 46th Ave,Denver,CO,80211.0,39.780612,-105.00284,Open 24 hours every day starting Monday; Open 24 hours every day; Open 24 hours every day,False
Denver Police Department District 3,Denver,1625 S University Blvd,Denver,CO,80210.0,39.686928,-104.96008,Open 24 hours every day starting Monday; Open 24 hours every day; Open 24 hours every day,False
Denver Police Department District 3,Denver,1625 S University Blvd,Denver,CO,80210.0,39.686928,-104.960084,Not Open; Not Open; Open Monday-Friday 10am-6pm and Saturday 10am-2pm,True
Eisenhower Recreation Center,Denver,4300 E Dartmouth Ave,Denver,CO,80222.0,39.659597,-104.93768,Open 24 hours every day starting Monday; Open 24 hours every day; Open 24 hours every day,False
Emily Griffith Technical College,Denver,1860 Lincoln St,Denver,CO,80203.0,39.745687,-104.985968,Open 24 hours every day starting Monday; Open 24 hours every day; Open 24 hours every day,False
Green Valley Ranch Recreation Center,Denver,4890 N Argonne Way,Denver,CO,80249.0,39.785571,-104.76711,Open 24 hours every day starting Monday; Open 24 hours every day; Open 24 hours every day,False
Harvey Park Recreation Center,Denver,2120 S Tennyson Way,Denver,CO,80219.0,39.678128,-105.04189,Open 24 hours every day starting Monday; Open 24 hours every day; Open 24 hours every day,False
Harvey Park Recreation Center,Denver,2120 S Tennyson Way,Denver,CO,80219.0,39.678128,-105.041889,Not Open; Not Open; Open Monday-Friday 10am-6pm and Saturday 10am-2pm,True
Hiawatha Davis Jr Recreation Center,Denver,3334 Holly St,Denver,CO,80207.0,39.764119,-104.92215,Open 24 hours every day starting Monday; Open 24 hours every day; Open 24 hours every day,False
Hiawatha Davis Jr Recreation Center,Denver,3334 Holly St,Denver,CO,80207.0,39.764119,-104.922146,Not Open; Not Open; Open Monday-Friday 10am-6pm and Saturday 10am-2pm,True
Highland Recreation Center,Denver,2880 Osceola St,Denver,CO,80212.0,39.758264,-105.03799,Open 24 hours every day starting Monday; Open 24 hours every day; Open 24 hours every day,False
Highland Recreation Center,Denver,2880 Osceola St,Denver,CO,80212.0,39.758264,-105.037987,Not Open; Not Open; Open Monday-Friday 10am-6pm and Saturday 10am-2pm,True
La Familia Recreation Center,Denver,65 S Elati St,Denver,CO,80223.0,39.715711,-104.99421,Open 24 hours every day starting Monday; Open 24 hours every day; Open 24 hours every day,False
Montbello Branch Library,Denver,12955 Albrook Dr,Denver,CO,80239.0,39.779611,-104.83999,Open 24 hours every day starting Monday; Open 24 hours every day; Open 24 hours every day,False
Montbello Recreation Center,Denver,15555 E 53rd Ave,Denver,CO,80239.0,39.792514,-104.80595,Open 24 hours every day starting Monday; Open 24 hours every day; Open 24 hours every day,False
Montbello Recreation Center,Denver,15555 E 53rd Ave,Denver,CO,80239.0,39.792514,-104.805954,Not Open; Not Open; Open Monday-Friday 10am-6pm and Saturday 10am-2pm,True
Montclair Recreation Center,Denver,729 N Ulster Way,Denver,CO,80230.0,39.727423,-104.89436,Open 24 hours every day starting Monday; Open 24 hours every day; Open 24 hours every day,False
Montclair Recreation Center,Denver,729 N Ulster Way,Denver,CO,80230.0,39.727423,-104.894359,Not Open; Not Open; Open Monday-Friday 10am-6pm and Saturday 10am-2pm,True
Redeemer Lutheran Church,Denver,3300 W Nevada Pl,Denver,CO,80219.0,39.710166,-105.03008,Not Open; Not Open; Open Monday-Friday 10am-6pm and Saturday 10am-2pm,True
Ross Cherry Creek Branch Library,Denver,305 N Milwaukee St,Denver,CO,80206.0,39.721259,-104.95256,Open 24 hours every day starting Monday; Open 24 hours every day; Open 24 hours every day,False
RTD I-25 and Broadway Station,Denver,901 S Broadway,Denver,CO,80209.0,39.700291,-104.98853,Open 24 hours every day starting Monday; Open 24 hours every day; Open 24 hours every day,False
RTD Light Rail at Union Station,Denver,1610 Chestnut Pl,Denver,CO,80202.0,39.754407,-105.0038,Open 24 hours every day starting Monday; Open 24 hours every day; Open 24 hours every day,False
RTD Southmoor Station,Denver,3737 S Monaco Street Pkwy,Denver,CO,80237.0,39.648231,-104.9141,Open 24 hours every day starting Monday; Open 24 hours every day; Open 24 hours every day,False
Rudolfo 'Corky' Gonzales Branch Library,Denver,1498 N Irving St,Denver,CO,80204.0,39.740129,-105.02972,Open 24 hours every day starting Monday; Open 24 hours every day; Open 24 hours every day,False
Scheitler Recreation Center,Denver,5031 W 46th Ave,Denver,CO,80212.0,39.781376,-105.05142,Open 24 hours every day starting Monday; Open 24 hours every day; Open 24 hours every day,False
Southwest Recreation Center,Denver,9200 W Saratoga Pl,Denver,CO,80123.0,39.629176,-105.09927,Open 24 hours every day starting Monday; Open 24 hours every day; Open 24 hours every day,False
Stapleton MCA Administrative Offices,Denver,9355 E Northfield Blvd,Denver,CO,80238.0,39.784461,-104.87916,Open 24 hours every day starting Monday; Open 24 hours every day; Open 24 hours every day,False
Swansea Recreation Center,Denver,2650 E 49th Ave,Denver,CO,80216.0,39.785561,-104.95554,Open 24 hours every day starting Monday; Open 24 hours every day; Open 24 hours every day,False
Tivoli Student Center Auraria Campus,Denver,900 Auraria Pkwy,Denver,CO,80204.0,39.745064,-105.00616,Open 24 hours every day starting Monday; Open 24 hours every day; Open 24 hours every day,False
Washington Park Recreation Center,Denver,701 S Franklin St,Denver,CO,80209.0,39.702571,-104.97048,Open 24 hours every day starting Monday; Open 24 hours every day; Open 24 hours every day,False
Wellington Webb Municipal Building,Denver,201 W Colfax Ave,Denver,CO,80204.0,39.740606,-104.99006,Open 24 hours every day starting Monday; Open 24 hours every day; Open 24 hours every day,False
Westwood Community Center/ SWIC,Denver,1000 S Lowell Blvd,Denver,CO,80219.0,39.698518,-105.03368,Open 24 hours every day starting Monday; Open 24 hours every day; Open 24 hours every day,False
Windsor Gardens,Denver,595 S Clinton St,Denver,CO,80231.0,39.706424,-104.877625,Open 24 hours every day starting Monday; Open 24 hours every day; Open 24 hours every day,False
Dolores County Courthouse,Dolores,409 N Main St,Dove Creek,CO,81324.0,37.765395,-108.9035,Not Open; Not Open; Open 24 hours every day starting Tuesday,True
Castle Pines Library,Douglas,360 Village Square Lane,Castle Pines,CO,80108.0,39.470142,-104.87946,Open 24 hours every day starting Monday; Open 24 hours every day; Open 24 hours every day,False
Crystal Valley Ranch Recreation Center,Douglas,2160 Fox Haven Dr,Castle Rock,CO,80104.0,39.33437,-104.83981,Open 24 hours every day starting Monday; Open 24 hours every day; Open 24 hours every day,False
Douglas County Elections,Douglas,125 Stephanie Pl,Castle Rock,CO,80109.0,39.376341,-104.86436,Open 24 hours every day starting Monday; Open 24 hours every day; Open 24 hours every day,False
Douglas County Event Center,Douglas,500 Fairgrounds Dr,Castle Rock,CO,80104.0,39.366383,-104.855417,Open 24 hours every day starting Monday; Open 24 hours every day; Open 24 hours every day,False
Douglas County Facilities,Douglas,9045 Tammy Ln,Parker,CO,80134.0,39.494481,-104.78755,Open 24 hours every day starting Monday; Open 24 hours every day; Open 24 hours every day,False
Douglas County Office,Douglas,100 3rd St,Castle Rock,CO,80104.0,39.371951,-104.86236,Open 24 hours every day starting Monday; Open 24 hours every day; Open 24 hours every day,False
Douglas County Parks and Trails Division,Douglas,9651 S Quebec St,Littleton,CO,80130.0,39.539432,-104.916475,Open 24 hours every day starting Monday; Open 24 hours every day; Open 24 hours every day,False
EchoPark Stadium,Douglas,11901 Newlin Gulch Blvd,Parker,CO,80134.0,39.500012,-104.81034,Open 24 hours every day starting Monday; Open 24 hours every day; Open 24 hours every day,False
Highlands Ranch Motor Vehicle,Douglas,2223 Wildcat Reserve Pkwy,Littleton,CO,80129.0,39.536017,-105.015877,Open 24 hours every day starting Monday; Open 24 hours every day; Open 24 hours every day,False
Highlands Ranch Sheriff Substation,Douglas,9250 Zotos Dr,Highlands Ranch,CO,80129.0,39.548299,-104.99676,Open 24 hours every day starting Monday; Open 24 hours every day; Open 24 hours every day,False
Larkspur Town Hall,Douglas,8720 Spruce Mountain Rd,Larkspur,CO,80118.0,39.234673,-104.88307,Open 24 hours every day starting Monday; Open 24 hours every day; Open 24 hours every day,False
Lone Tree Motor Vehicle Park Meadows Center,Douglas,9350 Heritage Hills Cir,Lone Tree,CO,80124.0,39.536998,-104.88082,Open 24 hours every day starting Monday; Open 24 hours every day; Open 24 hours every day,False
Lone Tree Municipal Building,Douglas,9220 Kimmer Dr,Lone Tree,CO,80124.0,39.552085,-104.88103,Open 24 hours every day starting Monday; Open 24 hours every day; Open 24 hours every day,False
Parker Police Department,Douglas,18600 Lincoln Meadows Pkwy,Parker,CO,80134.0,39.532867,-104.77214,Open 24 hours every day starting Monday; Open 24 hours every day; Open 24 hours every day,False
Parker Town Hall,Douglas,20120 Mainstreet,Parker,CO,80138.0,39.517416,-104.75219,Open 24 hours every day starting Monday; Open 24 hours every day; Open 24 hours every day,False
Redstone Park,Douglas,3280 Redstone Park Cir,Littleton,CO,80129.0,39.546436,-105.031322,Open 24 hours every day starting Monday; Open 24 hours every day; Open 24 hours every day,False
Sterling Ranch Civic Center,Douglas,8155 Piney River Ave,Littleton,CO,80125.0,39.506876,-105.037543,Open 24 hours every day starting Monday; Open 24 hours every day; Open 24 hours every day,False
The Grange,Douglas,3692 Meadows Blvd,Castle Rock,CO,80109.0,39.392243,-104.902811,Open 24 hours every day starting Monday; Open 24 hours every day; Open 24 hours every day,False
The Ridge House,Douglas,4501 E Enderud Rd,Castle Rock,CO,80104.0,39.369233,-104.814582,Open 24 hours every day starting Monday; Open 24 hours every day; Open 24 hours every day,False
Avon Clerk and Recorder's Office,Eagle,100 W Beaver Creek Blvd,Avon,CO,81620.0,39.634932,-106.52401,Open 24 hours every day starting Monday; Open 24 hours every day; Open 24 hours every day,False
Eagle Clerk and Recorder's Office,Eagle,550 Broadway,Eagle,CO,81631.0,39.651666,-106.82729,Open 24 hours every day starting Monday; Open 24 hours every day; Open 24 hours every day,False
Edwards Mountain Recreation Field House,Eagle,450 Miller Ranch Rd,Edwards,CO,81632.0,39.642454,-106.58354,Open 24 hours every day starting Monday; Open 24 hours every day; Open 24 hours every day,False
El Jebel Clerk and Recorder's Office,Eagle,20 Eagle County Dr,El Jebel,CO,81623.0,39.39252,-107.09069,Open 24 hours every day starting Monday; Open 24 hours every day; Open 24 hours every day,False
Town of Basalt,Eagle,101 Midland Ave,Basalt,CO,81621.0,39.368882,-107.03465,Open 24 hours every day starting Monday; Open 24 hours every day; Open 24 hours every day,False
`Bear Creek Park, Community Garden`,El Paso,2002 Creek Crossing St,Colorado Springs,CO,80905.0,38.824259,-104.855758,Open 24 hours every day starting Monday; Open 24 hours every day; Open 24 hours every day,False
Black Forest Fire Rescue Protection District,El Paso,11445 Teachout Rd,Colorado Springs,CO,80908.0,38.99715,-104.696301,Open 24 hours every day starting Monday; Open 24 hours every day; Open 24 hours every day,False
Black Forest Park & Ride,El Paso,7503 Black Forest Rd,Colorado Springs,CO,80908.0,38.940935,-104.70092,Open 24 hours every day starting Monday; Open 24 hours every day; Open 24 hours every day,False
Boot Barn Hall at Bourbon Brothers,El Paso,13021 Bass Pro Dr,Colorado Springs,CO,80921.0,39.022603,-104.8246,Open 24 hours every day starting Monday; Open 24 hours every day; Open 24 hours every day,False
Calhan CDOT,El Paso,1010 Golden St,Calhan,CO,80808.0,39.03141,-104.29799,Open 24 hours every day starting Monday; Open 24 hours every day; Open 24 hours every day,False
Chuck Brown Trans & Envir Complex,El Paso,3275 Akers Dr,Colorado Springs,CO,80922.0,38.881587,-104.688623,Open 24 hours every day starting Monday; Open 24 hours every day; Open 24 hours every day,False
Citadel Mall,El Paso,750 Citadel Dr E,Colorado Springs,CO,80909.0,38.844768,-104.75895,Open 24 hours every day starting Monday; Open 24 hours every day; Open 24 hours every day,False
City of Colorado Springs Administration Office,El Paso,30 S Nevada Ave,Colorado Springs,CO,80903.0,38.832775,-104.82233,Open 24 hours every day starting Monday; Open 24 hours every day; Open 24 hours every day,False
Colorado Springs Senior Center,El Paso,1514 N Hancock Ave,Colorado Springs,CO,80903.0,38.854726,-104.80279,Open 24 hours every day starting Monday; Open 24 hours every day; Open 24 hours every day,False
Cottonwood Creek Recreational Center,El Paso,3920 Dublin Blvd,Colorado Springs,CO,80918.0,38.928936,-104.7577,Open 24 hours every day starting Monday; Open 24 hours every day; Open 24 hours every day,False
East Library,El Paso,5550 N Union Blvd,Colorado Springs,CO,80918.0,38.912713,-104.77859,Open 24 hours every day starting Monday; Open 24 hours every day; Open 24 hours every day,False
Ellicott School District Admin Building,El Paso,322 S Ellicott Hwy,Calhan,CO,80808.0,38.824793,-104.38812,Open 24 hours every day starting Monday; Open 24 hours every day; Open 24 hours every day,False
EPC Clerk's Office,El Paso,`1675 W Garden Of The Gods Rd, Suite 2202`,Colorado Springs,CO,80907.0,38.896475,-104.85856,Open 24 hours every day starting Monday; Open 24 hours every day; Open 24 hours every day,False
EPC Clerk's Office,El Paso,5620 Industrial Pl,Colorado Springs,CO,80916.0,38.823671,-104.723,Open 24 hours every day starting Monday; Open 24 hours every day; Open 24 hours every day,False
EPC Clerk's Office,El Paso,8832 N Union Blvd,Colorado Springs,CO,80920.0,38.959469,-104.76567,Open 24 hours every day starting Monday; Open 24 hours every day; Open 24 hours every day,False
EPC Clerk's Office (Cascade Side),El Paso,200 S Cascade Ave,Colorado Springs,CO,80903.0,38.830789,-104.82646,Open 24 hours every day starting Monday; Open 24 hours every day; Open 24 hours every day,False
EPC Clerk's Office (Vermijo Side),El Paso,200 S Cascade Ave,Colorado Springs,CO,80903.0,38.830789,-104.82646,Open 24 hours every day starting Monday; Open 24 hours every day; Open 24 hours every day,False
Falcon Fire Department Station 3 Headquarters,El Paso,7030 Old Meridian Rd,Falcon,CO,80831.0,38.933522,-104.60961,Open 24 hours every day starting Monday; Open 24 hours every day; Open 24 hours every day,False
First and Main Town Center,El Paso,New Center Pt,Colorado Springs,CO,80922.0,38.879664,-104.71819,Open 24 hours every day starting Monday; Open 24 hours every day; Open 24 hours every day,False
Fountain Creek Park,El Paso,2010 Duckwood Rd,Fountain,CO,80817.0,38.708094,-104.712424,Open 24 hours every day starting Monday; Open 24 hours every day; Open 24 hours every day,False
Fountain Police Department Community Room,El Paso,222 N Santa Fe Ave,Fountain,CO,80817.0,38.695817,-104.7051,Open 24 hours every day starting Monday; Open 24 hours every day; Open 24 hours every day,False
Leon Young Sports Complex,El Paso,1335 S Chelton Rd,Colorado Springs,CO,80910.0,38.812407,-104.76617,Open 24 hours every day starting Monday; Open 24 hours every day; Open 24 hours every day,False
Library 21C,El Paso,1175 Chapel Hills Dr,Colorado Springs,CO,80920.0,38.95319,-104.79299,Open 24 hours every day starting Monday; Open 24 hours every day; Open 24 hours every day,False
Manitou Springs City Hall,El Paso,606 Manitou Ave,Manitou Springs,CO,80829.0,38.858014,-104.91281,Open 24 hours every day starting Monday; Open 24 hours every day; Open 24 hours every day,False
Monument Park & Ride,El Paso,Woodmoor Drive & I-25,Monument,CO,80132.0,39.096714,-104.862723,Open 24 hours every day starting Monday; Open 24 hours every day; Open 24 hours every day,False
Monument Town Hall,El Paso,645 Beacon Lite Rd,Monument,CO,80132.0,39.09753,-104.86858,Open 24 hours every day starting Monday; Open 24 hours every day; Open 24 hours every day,False
Pikes Peak CC - Centennial Campus,El Paso,5675 S Academy Blvd,Colorado Springs,CO,80913.0,38.762166,-104.784018,Open 24 hours every day starting Monday; Open 24 hours every day; Open 24 hours every day,False
Pikes Peak CC - Rampart Campus,El Paso,2070 Interquest Pkwy,Colorado Springs,CO,80920.0,38.99265,-104.789094,Open 24 hours every day starting Monday; Open 24 hours every day; Open 24 hours every day,False
Pikes Peak Regional Development Center,El Paso,2880 International Cir,Colorado Springs,CO,80910.0,38.826382,-104.790819,Open 24 hours every day starting Monday; Open 24 hours every day; Open 24 hours every day,False
Rocky Mountain Calvary,El Paso,4285 N Academy Blvd,Colorado Springs,CO,80918.0,38.893997,-104.75608,Open 24 hours every day starting Monday; Open 24 hours every day; Open 24 hours every day,False
School District 3 Federal Credit Union,El Paso,1180 Crawford Ave,Colorado Springs,CO,80911.0,38.7495969,-104.719704,Open 24 hours every day starting Monday; Open 24 hours every day; Open 24 hours every day,False
Tiffany Square - U-Haul Moving & Storage at Rockrimmon,El Paso,6805 Corporate Dr,Colorado Springs,CO,80919.0,38.930981,-104.814246,Open 24 hours every day starting Monday; Open 24 hours every day; Open 24 hours every day,False
University of Colorado Colorado Springs,El Paso,1420 Austin Bluffs Pkwy,Colorado Springs,CO,80918.0,38.890581,-104.796574,Open 24 hours every day starting Monday; Open 24 hours every day; Open 24 hours every day,False
Vista Grande Baptist Church,El Paso,5680 Stetson Hills Blvd,Colorado Springs,CO,80917.0,38.912028,-104.72192,Open 24 hours every day starting Monday; Open 24 hours every day; Open 24 hours every day,False
Wilson Ranch Pool,El Paso,2335 Allegheny Dr,Colorado Springs,CO,80919.0,38.930116,-104.87132,Open 24 hours every day starting Monday; Open 24 hours every day; Open 24 hours every day,False
Elbert County Elections Office,Elbert,440 Comanche St,Kiowa,CO,80117.0,39.346424,-104.4608,Not Open; Not Open; Open 24 hours every day starting Monday,True
Elizabeth Town Hall,Elbert,151 S Banner St,Elizabeth,CO,80107.0,39.360991,-104.59686,Open 24 hours every day starting Monday; Open 24 hours every day; Open 24 hours every day,False
Cotopaxi School,Fremont,345 County Rd 12,Cotopaxi,CO,81223.0,38.379149,-105.69182,Not Open; Not Open; Open 24 hours every day starting Monday,True
Florence City Hall,Fremont,600 W 3rd St,Florence,CO,81226.0,38.394248,-105.123308,Open Wednesday-Thursday 7am-5pm; Open Monday-Thursday 7am-5pm; Open Monday-Thursday 7am-5pm,True
Fremont County Administration Building,Fremont,615 Macon Ave Room 102,Canon City,CO,81212.0,38.442483,-105.23949,Not Open; Not Open; Open 24 hours every day starting Monday,True
Fremont County Administration Building,Fremont,615 Macon Ave Room 102,Canon City,CO,81212.0,38.442483,-105.23949,Open Wednesday-Thursday 7am-5pm; Open Monday-Thursday 7am-5pm; Open Monday-Thursday 7am-5pm,True
Penrose School,Fremont,100 Illinois St,Penrose,CO,81240.0,38.420842,-105.01915,Not Open; Not Open; Open 24 hours every day starting Monday,True
Carbondale Town Hall,Garfield,511 Colorado Ave,Carbondale,CO,81623.0,39.401859,-107.21208,Open 24 hours every day starting Tuesday; Open 24 hours every day; Open 24 hours every day,False
Garfield Clerk's Office,Garfield,`109 8th St, Suite 200`,Glenwood Springs,CO,81601.0,39.547194,-107.32664,Open Tuesday-Friday 8:30am-5pm; Open Monday-Friday 8:30am-5pm; Open Monday-Friday 8:30am-5pm,True
Garfield County Admin Building,Garfield,`195 W 14th St, Bldg D`,Rifle,CO,81650.0,39.54152,-107.78511,Open 24 hours every day starting Tuesday; Open 24 hours every day; Open 24 hours every day,False
Garfield County Courthouse,Garfield,`109 8th St, East Entrance`,Glenwood Springs,CO,81601.0,39.547194,-107.32664,Open 24 hours every day starting Tuesday; Open 24 hours every day; Open 24 hours every day,False
Garfield County Courthouse,Garfield,`109 8th St, Near East Entrance`,Glenwood Springs,CO,81601.0,39.547194,-107.32664,Open Wednesday-Friday 7:30am-5pm; Open Monday-Friday 7:30am-5pm; Open Monday-Friday 7:30am-5pm,True
New Castle Town Hall,Garfield,450 W Main St,New Castle,CO,81647.0,39.564318,-107.50974,Open Tuesday-Friday 10am-5pm; Open Monday 8am-5pm and Tuesday-Friday 10am-5pm; Open Monday 8am-5pm and Tuesday-Friday 10am-5pm,True
Parachute Town Hall,Garfield,222 Grand Valley Way,Parachute,CO,81635.0,39.452377,-108.04467,Open Tuesday-Thursday 7:30am-5pm; Open Monday-Thursday 7:30am-5pm; Open Monday-Thursday 7:30am-5pm,True
Rifle Branch Office,Garfield,`195 W 14th St, Bldg D`,Rifle,CO,81650.0,39.54152,-107.78511,Open Tuesday-Friday 8:30am-5pm; Open Monday-Friday 8:30am-5pm; Open Monday-Friday 8:30am-5pm,True
Silt Town Hall,Garfield,231 N 7th St,Silt,CO,81652.0,39.54811,-107.65591,Open Tuesday-Friday 8am-5pm; Open Monday-Friday 8am-5pm; Open Monday-Friday 8am-5pm,True
Gilpin County Community Center,Gilpin,250 Norton Dr,Black Hawk,CO,80422.0,39.836366,-105.47831,Open 24 hours every day starting Wednesday; Open 24 hours every day; Open 24 hours every day,False
Gilpin County Courthouse,Gilpin,203 Eureka St,Central City,CO,80427.0,39.80185,-105.514,Open 24 hours every day starting Wednesday; Open 24 hours every day; Open 24 hours every day,False
Gilpin County Public Works Rollinsville Shop,Gilpin,135 Tolland Rd,Rollinsville,CO,80474.0,39.917582,-105.50533,Open 24 hours every day starting Wednesday; Open 24 hours every day; Open 24 hours every day,False
CSU Extension Hall,Grand,210 11th St,Kremmling,CO,80459.0,40.059278,-106.38194,Open 24 hours every day starting Monday; Open 24 hours every day; Open 24 hours every day,False
Granby Town Hall,Grand,0 W Jasper Ave,Granby,CO,80446.0,40.086885,-105.942179,Open 24 hours every day starting Monday; Open 24 hours every day; Open 24 hours every day,False
Grand County Administration Building,Grand,308 Byers Ave,Hot Sulphur Springs,CO,80451.0,40.072417,-106.10387,Open 24 hours every day starting Monday; Open 24 hours every day; Open 24 hours every day,False
Grand County Administration Building,Grand,308 Byers Ave,Hot Sulphur Springs,CO,80451.0,40.072417,-106.10387,Not Open; Not Open; Open Monday-Friday 8:30am-5pm and Saturday 8:30am-12pm,True
Grand Lake Town Hall,Grand,1026 Park Ave,Grand Lake,CO,80447.0,40.252133,-105.81811,Open 24 hours every day starting Monday; Open 24 hours every day; Open 24 hours every day,False
Grand Park Community Recreation Center,Grand,1 Main St,Fraser,CO,80442.0,39.9312,-105.79107,Open 24 hours every day starting Monday; Open 24 hours every day; Open 24 hours every day,False
Blackstock Government Center Main Elections Office,Gunnison,221 N Wisconsin St,Gunnison,CO,81230.0,38.546015,-106.92901,Not Open; Open 24 hours every day starting Monday; Open 24 hours every day,True
Hinsdale Clerk's Office,Hinsdale,317 N Henson St,Lake City,CO,81235.0,38.029023,-107.31467,Not Open; Not Open; Open Monday-Friday 8am-5pm and Saturday 8am-12pm,True
Huerfano County Courthouse,Huerfano,`401 Main St, Suite 204`,Walsenburg,CO,81089.0,37.625428,-104.78175,Not Open; Open 24 hours every day starting Monday; Open 24 hours every day,True
Jackson County Courthouse,Jackson,396 LaFever St,Walden,CO,80480.0,40.731788,-106.28344,Not Open; Not Open; Open 24 hours every day starting Friday,True
Anderson Park,Jefferson,9110 W 44th Ave,Wheat Ridge,CO,80033.0,39.777731,-105.09868,Open 24 hours every day starting Monday; Open 24 hours every day; Open 24 hours every day,False
Apex Recreation Center,Jefferson,13150 W 72nd Ave,Arvada,CO,80005.0,39.825961,-105.145955,Open 24 hours every day starting Monday; Open 24 hours every day; Open 24 hours every day,False
Arvada City Hall,Jefferson,8001 Ralston Rd,Arvada,CO,80002.0,39.803271,-105.08856,Open 24 hours every day starting Monday; Open 24 hours every day; Open 24 hours every day,False
Arvada City Hall (Drive thru),Jefferson,8101 Ralston Rd,Arvada,CO,80002.0,39.802897,-105.08801,Open 24 hours every day starting Monday; Open 24 hours every day; Open 24 hours every day,False
Arvada Motor Vehicle,Jefferson,6510 Wadsworth Blvd,Arvada,CO,80003.0,39.814221,-105.07924,Open 24 hours every day starting Monday; Open 24 hours every day; Open 24 hours every day,False
Buchanan Recreation Center,Jefferson,32003 Ellingwood Trl,Evergreen,CO,80439.0,39.684693,-105.363209,Open 24 hours every day starting Monday; Open 24 hours every day; Open 24 hours every day,False
Carmody Recreation Center,Jefferson,2200 S Kipling St,Lakewood,CO,80227.0,39.678008,-105.10885,Open 24 hours every day starting Monday; Open 24 hours every day; Open 24 hours every day,False
Colorado School of Mines,Jefferson,1400 Illinois St,Golden,CO,80401.0,39.751828,-105.223001,Open 24 hours every day starting Monday; Open 24 hours every day; Open 24 hours every day,False
Columbine Library,Jefferson,7706 W Bowles Ave,Littleton,CO,80123.0,39.608797,-105.0824,Open 24 hours every day starting Monday; Open 24 hours every day; Open 24 hours every day,False
Conifer Marketplace,Jefferson,10875 S Us Hwy 285,Conifer,CO,80433.0,39.518859,-105.30649,Open 24 hours every day starting Monday; Open 24 hours every day; Open 24 hours every day,False
Edgewater City Hall,Jefferson,1800 Harlan St,Edgewater,CO,80214.0,39.74559,-105.06258,Open 24 hours every day starting Monday; Open 24 hours every day; Open 24 hours every day,False
Evergreen Library,Jefferson,5000 County Hwy 73,Evergreen,CO,80439.0,39.625171,-105.32355,Open 24 hours every day starting Monday; Open 24 hours every day; Open 24 hours every day,False
Golden City Hall,Jefferson,911 10th St,Golden,CO,80401.0,39.756653,-105.22439,Open 24 hours every day starting Monday; Open 24 hours every day; Open 24 hours every day,False
Green Mountain Recreation Center,Jefferson,13198 W Green Mountain Dr,Lakewood,CO,80228.0,39.69149,-105.14865,Open 24 hours every day starting Monday; Open 24 hours every day; Open 24 hours every day,False
Jeffco Courts & Admin Atrium,Jefferson,100 Jefferson County Pkwy,Golden,CO,80401.0,39.728292,-105.20146,Open Monday-Friday 7:30-5:30pm; Open Monday-Friday 7:30-5:30pm; Open Monday-Friday 7:30-5:30pm,True
Jeffco Courts & Admin Drive Thru,Jefferson,100 Jefferson County Pkwy,Golden,CO,80401.0,39.728292,-105.20146,Open 24 hours every day starting Monday; Open 24 hours every day; Open 24 hours every day,False
Jeffco Elections Division,Jefferson,3500 Illinois St,Golden,CO,80401.0,39.733847,-105.21158,Open 24 hours every day starting Monday; Open 24 hours every day; Open 24 hours every day,False
Jeffco Public Health,Jefferson,645 Parfet St,Lakewood,CO,80215.0,39.727187,-105.12043,Open 24 hours every day starting Monday; Open 24 hours every day; Open 24 hours every day,False
Lakewood City Hall,Jefferson,480 S Allison Pkwy,Lakewood,CO,80226.0,39.70828,-105.08453,Open 24 hours every day starting Monday; Open 24 hours every day; Open 24 hours every day,False
Lakewood Library,Jefferson,10200 W 20th Ave,Lakewood,CO,80215.0,39.747071,-105.11309,Open 24 hours every day starting Monday; Open 24 hours every day; Open 24 hours every day,False
Lakewood Link Recreation Center,Jefferson,1295 S Reed St,Lakewood,CO,80232.0,39.694149,-105.07742,Open 24 hours every day starting Monday; Open 24 hours every day; Open 24 hours every day,False
Lilley Gulch Recreation Center,Jefferson,6147 S Holland Way,Littleton,CO,80123.0,39.603079,-105.103765,Open 24 hours every day starting Monday; Open 24 hours every day; Open 24 hours every day,False
Red Rocks Community College - Environmental Technology Building,Jefferson,13302 Fox Run,Green Mountain Village,CO,80228.0,39.722175,-105.152153,Open 24 hours every day starting Monday; Open 24 hours every day; Open 24 hours every day,False
Ridge Recreation Center,Jefferson,6613 S Ward St,Littleton,CO,80127.0,39.595896,-105.134874,Open 24 hours every day starting Monday; Open 24 hours every day; Open 24 hours every day,False
South Jeffco Service Center,Jefferson,11139 Bradford Rd,Littleton,CO,80127.0,39.569264,-105.12225,Open 24 hours every day starting Monday; Open 24 hours every day; Open 24 hours every day,False
Standley Lake Library,Jefferson,8485 Kipling St,Arvada,CO,80005.0,39.850159,-105.11131,Open 24 hours every day starting Monday; Open 24 hours every day; Open 24 hours every day,False
West View Recreation Center,Jefferson,10747 W 108th Ave,Westminster,CO,80021.0,39.894101,-105.11837,Open 24 hours every day starting Monday; Open 24 hours every day; Open 24 hours every day,False
West Woods Community Police Station,Jefferson,6644 Kendrick Dr,Arvada,CO,80007.0,39.815206,-105.16957,Open 24 hours every day starting Monday; Open 24 hours every day; Open 24 hours every day,False
Westminster City Park Recreation Center,Jefferson,10455 Sheridan Blvd,Westminster,CO,80020.0,39.886912,-105.05576,Open 24 hours every day starting Monday; Open 24 hours every day; Open 24 hours every day,False
Westminster Sports Center,Jefferson,6051 W 95th Ave,Westminster,CO,80031.0,39.869483,-105.06345,Open 24 hours every day starting Monday; Open 24 hours every day; Open 24 hours every day,False
Wheat Ridge City Hall,Jefferson,7500 W 29th Ave,Wheat Ridge,CO,80033.0,39.757308,-105.08059,Open 24 hours every day starting Monday; Open 24 hours every day; Open 24 hours every day,False
Whisper Creek Community Station,Jefferson,14360 W 89th Dr,Arvada,CO,80005.0,39.858814,-105.160249,Open 24 hours every day starting Monday; Open 24 hours every day; Open 24 hours every day,False
Kiowa County Courthouse,Kiowa,1305 Goff St,Eads,CO,81036.0,38.479566,-102.78022,Not Open; Monday-Friday 8am-4:15pm and Saturday 8am-12pm; Monday-Friday 8am-4:15pm and Saturday 8am-12pm,True
Kiowa County Courthouse,Kiowa,1305 Goff St,Eads,CO,81036.0,38.479566,-102.78022,Not Open; Open 24 hours every day starting Monday; Open 24 hours every day,True
Flagler Senior Center,Kit Carson,306 Main Ave,Flagler,CO,80815.0,39.291266,-103.06745,Not Open; Not Open; Not Open,True
Kit Carson County Courthouse,Kit Carson,251 16th St,Burlington,CO,80807.0,39.302873,-102.27083,Open 24 hours every day starting Monday; Open 24 hours every day; Open 24 hours every day,False
Stratton Activity Center,Kit Carson,918 Colorado Ave,Stratton,CO,80836.0,39.296908,-102.60516,Not Open; Not Open; Not Open,True
Bayfield Town Hall,La Plata,1199 Bayfield Pkwy,Bayfield,CO,81122.0,37.225601,-107.60405,Open 24 hours every day starting Monday; Open 24 hours every day; Open 24 hours every day,False
Farmer's Fresh Market,La Plata,535 Goddard Ave,Ignacio,CO,81137.0,37.115755,-107.63351,Open 24 hours every day starting Monday; Open 24 hours every day; Open 24 hours every day,False
Fort Lewis College Concert Hall,La Plata,1000 Rim Dr,Durango,CO,81301.0,37.274372,-107.869929,Open 24 hours every day starting Monday; Open 24 hours every day; Open 24 hours every day,False
La Plata County Administration Building,La Plata,1101 E 2nd Ave,Durango,CO,81301.0,37.275565,-107.87899,Open 24 hours every day starting Monday; Open 24 hours every day; Open 24 hours every day,False
La Plata County Clerk and Recorders Office (Bodo),La Plata,`679 Turner Dr, Suite C`,Durango,CO,81303.0,37.245729,-107.8791,Open 24 hours every day starting Monday; Open 24 hours every day; Open 24 hours every day,False
Lake County Courthouse,Lake,505 Harrison Ave,Leadville,CO,80461.0,39.248044,-106.29179,Not Open; Not Open; Open 24 hours every day starting Monday,True
Berthoud Community Library,Larimer,236 Welch Ave,Berthoud,CO,80513.0,40.304486,-105.076882,Open 24 hours every day starting Monday; Open 24 hours every day; Open 24 hours every day,False
Colorado State University - Lory Student Center,Larimer,1101 Center Ave Mall,Fort Collins,CO,80524.0,40.57429,-105.084115,Open 24 hours every day starting Monday; Open 24 hours every day; Open 24 hours every day,False
Estes Park Vehicle Licensing Office,Larimer,1601 Brodie Ave,Estes Park,CO,80517.0,40.369871,-105.49647,Open 24 hours every day starting Monday; Open 24 hours every day; Open 24 hours every day,False
Harmony Library (Front Range Community College),Larimer,4616 S Shields St,Fort Collins,CO,80526.0,40.521838,-105.093209,Open 24 hours every day starting Monday; Open 24 hours every day; Open 24 hours every day,False
King Soopers,Larimer,1275 Eagle Dr,Loveland,CO,80537.0,40.379717,-105.09955,Not Open; Not Open; Open Friday 8am-5pm and Saturday 9am-1pm,True
King Soopers,Larimer,1842 N College Ave,Fort Collins,CO,80524.0,40.611948,-105.07421,Not Open; Not Open; Open Friday 8am-5pm and Saturday 9am-1pm,True
King Soopers,Larimer,2602 S Timberline Rd,Fort Collins,CO,80525.0,40.551406,-105.03803,Not Open; Not Open; Open Friday 8am-5pm and Saturday 9am-1pm,True
Larimer County Courthouse,Larimer,200 W Oak St,Fort Collins,CO,80521.0,40.586375,-105.0798,Open 24 hours every day starting Monday; Open 24 hours every day; Open 24 hours every day,False
Loveland Vehicle Licensing Office,Larimer,200 Peridot Ave,Loveland,CO,80537.0,40.393768,-105.04609,Open 24 hours every day starting Monday; Open 24 hours every day; Open 24 hours every day,False
Red Feather Lakes Community Library,Larimer,71 Fire House Ln,Red Feather Lakes,CO,80545.0,40.802042,-105.589865,Open 24 hours every day starting Monday; Open 24 hours every day; Open 24 hours every day,False
Safeway,Larimer,1426 E Harmony Rd,Fort Collins,CO,80525.0,40.524653,-105.05181,Not Open; Not Open; Open Friday 8am-5pm and Saturday 9am-1pm,True
Safeway,Larimer,2160 W Drake Rd,Fort Collins,CO,80526.0,40.554254,-105.11642,Not Open; Not Open; Open Friday 8am-5pm and Saturday 9am-1pm,True
Timnath Public Works Building,Larimer,4800 Goodman St,Timnath,CO,80547.0,40.519558,-104.961094,Open 24 hours every day starting Monday; Open 24 hours every day; Open 24 hours every day,False
Wellington Public Library,Larimer,3800 Wilson Ave,Wellington,CO,80549.0,40.709781,-105.004311,Open 24 hours every day starting Monday; Open 24 hours every day; Open 24 hours every day,False
Las Animas County Courthouse,Las Animas,`200 E 1st St, South Side of Building`,Trinidad,CO,81082.0,37.168298,-104.50383,Not Open; Not Open; Open 24 hours every day,True
Limon Town Hall,Lincoln,100 Civic Center Dr,Limon,CO,80828.0,39.260972,-103.6878788,Not Open; Open 24 hours every day starting Thursday; Open 24 hours every day,True
Lincoln County Courthouse,Lincoln,103 3rd Ave,Hugo,CO,80821.0,39.131525,-103.472888,Open Monday-Friday 8am-4:30pm; Open Monday-Friday 8am-4:30pm; Not Open,True
Logan County Clerk & Recorder's Office,Logan,315 Main St,Sterling,CO,80751.0,40.623813,-103.20865,Open 24 hours every day starting Monday; Open 24 hours every day; Open 24 hours every day,False
Colorado Mesa University,Mesa,1100 North Ave,Grand Junction,CO,81501.0,39.078712,-108.553849,Open 24 hours every day; Open 24 hours every day; Open 24 hours every day,False
Fruita Civic Center,Mesa,325 E Aspen Ave,Fruita,CO,81521.0,39.159545,-108.73056,Open 24 hours every day; Open 24 hours every day; Open 24 hours every day,False
Grand Valley Transit (West),Mesa,612 24 1/2 Rd,Grand Junction,CO,81505.0,39.092956,-108.59796,Open 24 hours every day; Open 24 hours every day; Open 24 hours every day,False
Mesa County Central Services,Mesa,200 S Spruce St,Grand Junction,CO,81501.0,39.066077,-108.57149,Open 24 hours every day; Open 24 hours every day; Open 24 hours every day,False
Mesa County Human Services,Mesa,510 29 1/2 Rd,Grand Junction,CO,81504.0,39.078634,-108.50411,Open 24 hours every day; Open 24 hours every day; Open 24 hours every day,False
Peach Tree Shopping Center,Mesa,`3225 I 70 Business, Unit A2`,Clifton,CO,81520.0,39.090329,-108.45483,Open 24 hours every day; Open 24 hours every day; Open 24 hours every day,False
Mineral County Courthouse,Mineral,1201 N Main St,Creede,CO,81130.0,37.8541,-106.9271,Open 24 hours every day starting Wednesday; Open 24 hours every day; Open 24 hours every day,False
Moffat County Courthouse,Moffat,`221 W Victory Way, Suite 200`,Craig,CO,81625.0,40.514379,-107.5499,Not Open; Not Open; Open 24 hours every day starting Monday,True
Moffat County Courthouse,Moffat,`221 W Victory Way, Suite 200`,Craig,CO,81625.0,40.514379,-107.5499,Open Monday-Friday 8am-4:30pm and Saturday 10am-2pm; Open Monday-Friday 8am-4:30pm and Saturday 10am-2pm; Open Monday-Friday 8am-4:30pm and Saturday 10am-2pm,True
Dolores Town Hall,Montezuma,420 Cental Ave,Dolores,CO,81323.0,37.473656,-108.5038294,Not Open; Not Open; Open 24 hours every day starting Tuesday,True
Mancos Town Hall,Montezuma,117 N Main St,Mancos,CO,81328.0,37.345478,-108.288918,Not Open; Not Open; Open 24 hours every day starting Tuesday,True
Montezuma County Clerk & Recorders,Montezuma,`140 W Main St, Suite 1`,Cortez,CO,81321.0,37.348761,-108.58755,Not Open; Not Open; Open 24 hours every day starting Tuesday,True
Ute Mountain Ute Tribal Headquarters,Montezuma,124 Mike Wash Rd,Towaoc,CO,81334.0,37.2019284,-108.7289947,Not Open; Not Open; Open 24 hours every day starting Tuesday,True
Montrose County Old Courthouse,Montrose,320 S 1st St,Montrose,CO,81401.0,38.478101,-107.8761,Open 24 hours every day; Open 24 hours every day; Open 24 hours every day,False
Nucla Annex Clerk & Recorders Office,Montrose,300 Main St,Nucla,CO,81424.0,38.271252,-108.54641,Open 24 hours every day; Open 24 hours every day; Open 24 hours every day,False
Olathe Town Hall,Montrose,419 S Horton Ave,Olathe,CO,81425.0,38.60554,-107.98351,Open Monday-Friday 8am-5pm; Open Monday-Friday 8am-5pm; Open Monday-Friday 8am-5pm,True
Morgan County Administration Building,Morgan,231 Ensign St - West Alleyway,Fort Morgan,CO,80701.0,40.249471,-103.80325,Open 24 hours every day starting Monday; Open 24 hours every day; Open 24 hours every day,False
City of Rocky Ford,Otero,203 S Main St,Rocky Ford,CO,81067.0,38.051919,-103.72057,Open Monday-Friday 7:30-4:30pm; Open Monday-Friday 7:30-4:30pm; Open Monday-Friday 7:30-4:30pm,True
Otero County Courthouse,Otero,13 W 3rd St,La Junta,CO,81050.0,37.986101,-103.54324,Open 24 hours every day starting Monday; Open 24 hours every day; Open 24 hours every day,False
Otero Junior College,Otero,1802 Colorado Ave,La Junta,CO,81050.0,37.971205,-103.54327,Open Monday-Friday 8am-5pm; Open Monday-Friday 8am-5pm; Open Monday-Friday 8am-5pm,True
Town of Fowler,Otero,317 S Main St,Fowler,CO,81039.0,38.128891,-104.02396,Open Monday-Friday 8am-5pm; Open Monday-Friday 8am-5pm; Open Monday-Friday 8am-5pm,True
4H Event Center,Ouray,22739 Highway 550,Ridgway,CO,81432.0,38.149027,-107.74684,Open 24 hours every day; Open 24 hours every day; Open 24 hours every day,False
Ouray City Hall,Ouray,320 6th Ave,Ouray,CO,81427.0,38.022921,-107.67051,Open 24 hours every day; Open 24 hours every day; Open 24 hours every day,False
Bailey Clerk and Recorders Office,Park,59865 Us Hwy 285,Bailey,CO,80421.0,39.408696,-105.49257,Open 24 hours every day starting Monday; Open 24 hours every day; Open 24 hours every day,False
Fairplay Clerk & Recorder's Office,Park,856 Castello Ave,Fairplay,CO,80440.0,39.222383,-105.99205,Open 24 hours every day starting Monday; Open 24 hours every day; Open 24 hours every day,False
Platte Canyon Fire Station,Park,153 Delwood Dr,Bailey,CO,80421.0,39.437027,-105.46098,Open 24 hours every day starting Monday; Open 24 hours every day; Open 24 hours every day,False
Haxton Town Hall,Phillips,145 S Colorado Ave,Haxtun,CO,80731.0,40.641835,-102.628705,Not Open; Not Open; Open Tuesday-Friday 8am-4pm,True
Phillips County Clerks Office,Phillips,`221 S Interocean Ave, Parking Lot`,Holyoke,CO,80734.0,40.583773,-102.3021,Not Open; Not Open; Open 24 hours every day starting Tuesday,True
Basalt Town Hall,Pitkin,101 Midland Ave,Basalt,CO,81621.0,39.368882,-107.03465,Open 24 hours every day starting Monday; Open 24 hours every day; Open 24 hours every day,False
Pitkin County Administration & Sheriff's Office,Pitkin,530 E Main St,Aspen,CO,81611.0,39.190667,-106.81711,Open 24 hours every day; Open 24 hours every day; Open 24 hours every day,False
Pitkin County Elections Office,Pitkin,`530 E Main St, Suite 104`,Aspen,CO,81611.0,39.190667,-106.81711,Open Monday-Friday 8:30am-4:30pm; Open Monday-Friday 8:30am-4:30pm; Open Monday-Friday 8:30am-4:30pm,True
Town of Snowmass Village Town Hall,Pitkin,130 Kearns Rd,Snowmass Village,CO,81615.0,39.211443,-106.94761,Open 24 hours every day starting Monday; Open 24 hours every day; Open 24 hours every day,False
Prowers County Courthouse,Prowers,`301 S Main St, Suite 210`,Lamar,CO,81052.0,38.08594,-102.61896,Not Open; Not Open; Open 24 hours every day starting Monday,True
Colorado State Fair,Pueblo,950 S Prairie Ave,Pueblo,CO,81004.0,38.249316,-104.64328,Open 24 hours every day starting Monday; Open 24 hours every day; Open 24 hours every day,False
Colorado State University Pueblo,Pueblo,2200 Bonforte Blvd,Pueblo,CO,81001.0,38.308547,-104.577068,Open 24 hours every day starting Monday; Open 24 hours every day; Open 24 hours every day,False
Lamb Branch Library,Pueblo,2525 S Pueblo Blvd,Pueblo,CO,81005.0,38.224755,-104.66147,Open 24 hours every day starting Monday; Open 24 hours every day; Open 24 hours every day,False
Patrick A. Lucero Library,Pueblo,1315 E 7th St,Pueblo,CO,81001.0,38.274211,-104.58703,Not Open; Not Open; Open Monday-Friday 9am-5pm and Saturday 10am-2pm,True
Pueblo  County Courthouse,Pueblo,`215 W 10th St, West Side of Court Street`,Pueblo,CO,81003.0,38.276611,-104.60947,Open Wednesday-Friday 8am-4:30pm; Open Wednesday-Friday 8am-4:30pm; Open Wednesday-Friday 8am-4:30pm | Saturday 10am-2pm,True
Pueblo Community College,Pueblo,900 W Orman Ave,Pueblo,CO,81004.0,38.262304,-104.637529,Open 24 hours every day starting Monday; Open 24 hours every day; Open 24 hours every day,False
Pueblo County Courthouse,Pueblo,`215 W 10th St, Ground Floor`,Pueblo,CO,81003.0,38.276698,-104.60944,Open Wednesday-Friday 8am-4:30pm; Open Wednesday-Friday 8am-4:30pm; Open Wednesday-Friday 8am-4:30pm | Saturday 10am-2pm,True
Pueblo County Courthouse,Pueblo,`215 W 10th St, 1st Floor Rotunda`,Pueblo,CO,81003.0,38.276698,-104.60944,Open Wednesday-Friday 8am-4:30pm; Open Wednesday-Friday 8am-4:30pm; Open Wednesday-Friday 8am-4:30pm | Saturday 10am-2pm,True
Pueblo County Election Office,Pueblo,`720 N Main St, Back of Building`,Pueblo,CO,81003.0,38.274208,-104.60843,Open 24 hours every day starting Monday; Open 24 hours every day; Open 24 hours every day,False
Pueblo County Sheriff's Substation (Pueblo West),Pueblo,320 E Joe Martinez Blvd,Pueblo,CO,81007.0,38.323405,-104.73978,Open 24 hours every day starting Monday; Open 24 hours every day; Open 24 hours every day,False
Tom L. & Anna Marie Giodone Library,Pueblo,24655 E US Hwy 50,Pueblo,CO,81006.0,38.2459,-104.5447,Not Open; Not Open; Open Friday 9am-5pm and Saturday 10am-2pm,True
Rangely Town Hall,Rio Blanco,209 E Main,Rangely,CO,81648.0,40.086463,-108.80256,Open 24 hours every day starting Tuesday; Open 24 hours every day; Open 24 hours every day,False
Rio Blanco County Courthouse,Rio Blanco,555 Main St,Meeker,CO,81641.0,40.038006,-107.91315,Open 24 hours every day starting Tuesday; Open 24 hours every day; Open 24 hours every day,False
Rio Grande County Clerk's Office,Rio Grande,965 Sixth St,Del Norte,CO,81132.0,37.67723,-106.349756,Not Open; Not Open; Open 24 hours every day starting Tuesday,True
Clark Store,Routt,54175 Co Rd 129,Clark,CO,80428.0,40.707513,-106.91862,Open Monday-Sunday 7am-7pm; Open Monday-Sunday 7am-7pm; Open Monday-Sunday 7am-7pm,True
Hayden Town Hall,Routt,178 W Jefferson Ave,Hayden,CO,81639.0,40.495287,-107.25844,Open Monday-Thursday 8am-5pm | Friday 8am-12pm; Open Monday-Thursday 8am-5pm and Friday 8am-12pm; Open Monday-Thursday 8am-5pm and Friday 8am-12pm,True
Oak Creek Town Hall,Routt,129 Nancy Crawford Blvd,Oak Creek,CO,80467.0,40.27488,-106.95993,Open Monday-Thursday 8am-5pm | Friday 8am-12pm; Open Monday-Thursday 8am-5pm and Friday 8am-12pm; Open Monday-Thursday 8am-5pm and Friday 8am-12pm,True
Routt County Courthouse,Routt,522 Lincoln Ave,Steamboat Springs,CO,80487.0,40.48464,-106.83173,Open 24 hours every day starting Monday; Open 24 hours every day; Open 24 hours every day,False
Yampa Town Hall,Routt,101 Main St,Yampa,CO,80483.0,40.151528,-106.90852,Open Friday 8am-4pm; Open Monday-Friday 8am-4pm; Open Monday-Friday 8am-4pm,True
Center Town Hall,Saguache,294 S Worth St,Center,CO,81125.0,37.753514,-106.10823,Not Open; Open 24 hours every day starting Monday; Open 24 hours every day,True
Saguache County Courthouse,Saguache,501 4th St,Saguache,CO,81149.0,38.085218,-106.1379,Not Open; Open 24 hours every day starting Monday; Open 24 hours every day,True
Saguache County Sheriff's Satellite Office,Saguache,182 E Galena Ave,Crestone,CO,81131.0,37.995085,-105.69824,Not Open; Open 24 hours every day starting Monday; Open 24 hours every day,True
San Juan County Courthouse,San Juan,1557 Greene St,Silverton,CO,81433.0,37.815152,-107.662005,Not Open; Not Open; Open Monday-Friday 8am-4pm and Saturday 10am-2pm,True
Glockson Building,San Miguel,1120 Summit St,Norwood,CO,81423.0,38.131585,-108.29695,Open 24 hours every day starting Wednesday; Open 24 hours every day; Open 24 hours every day,False
Miramonte Building,San Miguel,333 W Colorado Ave,Telluride,CO,81435.0,37.938068,-107.81318,Open 24 hours every day starting Wednesday; Open 24 hours every day; Open 24 hours every day,False
San Miguel County Courthouse,San Miguel,305 W Colorado Ave,Telluride,CO,81435.0,37.937994,-107.81289,Open Wednesday-Friday 8am-5pm; Open Monday-Friday 8am-5pm; Open Monday-Friday 8am-5pm,True
Sedgwick County Courthouse Parking Lot,Sedgwick,315 Cedar St,Julesburg,CO,80737.0,40.988384,-102.26484,Not Open; Not Open; Open 24 hours every day starting Monday,True
Dillon Town Hall,Summit,275 Lake Dillon Dr,Dillon,CO,80435.0,39.629938,-106.04579,Open 24 hours every day starting Monday; Open 24 hours every day; Open 24 hours every day,False
Frisco Town Hall,Summit,1 Main St,Frisco,CO,80443.0,39.575074,-106.10306,Open 24 hours every day starting Monday; Open 24 hours every day; Open 24 hours every day,False
North Branch Library,Summit,651 Center Cir,Silverthorne,CO,80498.0,39.636763,-106.07403,Open 24 hours every day starting Monday; Open 24 hours every day; Open 24 hours every day,False
Old Courthouse,Summit,208 Lincoln Ave,Breckenridge,CO,80424.0,39.482334,-106.04462,Open 24 hours every day starting Monday; Open 24 hours every day; Open 24 hours every day,False
Summit County Commons,Summit,37 Peak One Dr,Frisco,CO,80443.0,39.571495,-106.08099,Open 24 hours every day starting Monday; Open 24 hours every day; Open 24 hours every day,False
Teller County Clerk and Recorder's Annex Office,Teller,`800 Research Dr, Suite 200`,Woodland Park,CO,80863.0,39.014801,-105.06417,Open 24 hours every day starting Monday; Open 24 hours every day; Open 24 hours every day,False
Teller County Courthouse,Teller,101 W Bennett Ave,Cripple Creek,CO,80813.0,38.746792,-105.18076,Open 24 hours every day starting Monday; Open 24 hours every day; Open 24 hours every day,False
Teller County Courthouse,Teller,101 W Bennett Ave,Cripple Creek,CO,80813.0,38.746792,-105.18076,Open Monday-Friday 8am-4:30pm and Saturday 8am-12pm; Open Monday-Friday 8am-4:30pm and Saturday 8am-12pm; Open Monday-Friday 8am-4:30pm and Saturday 8am-12pm,True
Washington County Clerk & Recorder's Office,Washington,150 Ash Ave,Akron,CO,80720.0,40.159668,-103.21131,Open 24 hours every day starting Monday; Open 24 hours every day; Open 24 hours every day,False
Aims College Cornerstone Building,Weld,5401 W 20th St Rd,Greeley,CO,80634.0,40.407339,-104.768417,Open 24 hours every day starting Monday; Open 24 hours every day; Open 24 hours every day,False
Briggsdale RE-10J,Weld,420 Main St,Briggsdale,CO,80611.0,40.634238,-104.32594,Open 24 hours every day starting Monday; Open 24 hours every day; Open 24 hours every day,False
Carbon Valley Recreation Center,Weld,701 5th St,Frederick,CO,80530.0,40.099348,-104.93017,Open 24 hours every day starting Monday; Open 24 hours every day; Open 24 hours every day,False
Erie Community Center,Weld,450 Powers St,Erie,CO,80516.0,40.037825,-105.05233,Open 24 hours every day starting Monday; Open 24 hours every day; Open 24 hours every day,False
Evans Community Complex,Weld,1100 37th St,Evans,CO,80620.0,40.376565,-104.69767,Open 24 hours every day starting Monday; Open 24 hours every day; Open 24 hours every day,False
Ft Lupton Recreation Center,Weld,203 S Harrison Ave,Fort Lupton,CO,80621.0,40.07845,-104.80675,Open 24 hours every day starting Monday; Open 24 hours every day; Open 24 hours every day,False
Greeley City Hall,Weld,1000 10th St,Greeley,CO,80631.0,40.422228,-104.69534,Open 24 hours every day starting Monday; Open 24 hours every day; Open 24 hours every day,False
Greeley Election Office,Weld,1400 N 17th Ave,Greeley,CO,80631.0,40.450725,-104.70307,Open Monday-Friday 8am-5pm; Open Monday-Friday 8am-5pm; Open Monday-Friday 8am-5pm and Saturday 10am-2pm,True
Grover Town Hall,Weld,315 Chatoga Ave,Grover,CO,80729.0,40.867761,-104.2261,Open 24 hours every day starting Monday; Open 24 hours every day; Open 24 hours every day,False
Hudson Library,Weld,100 S Beech St,Hudson,CO,80642.0,40.064763,-104.63922,Open 24 hours every day starting Monday; Open 24 hours every day; Open 24 hours every day,False
Lochbuie Town Hall,Weld,703 County Rd 37,Lochbuie,CO,80603.0,40.0109578,-104.7170084,Open 24 hours every day starting Monday; Open 24 hours every day; Open 24 hours every day,False
Milliken Town Hall,Weld,1101 Broad St,Milliken,CO,80543.0,40.330403,-104.85537,Open 24 hours every day starting Monday; Open 24 hours every day; Open 24 hours every day,False
New Raymer Church,Weld,225 County Rd 86,New Raymer,CO,80742.0,40.610508,-103.743765,Open 24 hours every day starting Monday; Open 24 hours every day; Open 24 hours every day,False
Nunn Town Hall,Weld,185 Lincoln Ave,Nunn,CO,80648.0,40.706269,-104.78218,Open 24 hours every day starting Monday; Open 24 hours every day; Open 24 hours every day,False
Southwest Weld Office (Del Camino),Weld,4209 County Rd 24 1/2,Longmont,CO,80504.0,40.168095,-104.976493,Open 24 hours every day starting Monday; Open 24 hours every day; Open 24 hours every day,False
UNC Campus Commons,Weld,1051 22nd St,Greeley,CO,80631.0,40.402963,-104.6957,Open 24 hours every day starting Monday; Open 24 hours every day; Open 24 hours every day,False
Windsor Recreation Center,Weld,250 N 11th St,Windsor,CO,80550.0,40.482674,-104.91888,Open 24 hours every day starting Monday; Open 24 hours every day; Open 24 hours every day,False
Yuma City Hall,Yuma,320 S Main St,Yuma,CO,80759.0,40.122535,-102.72395,Open Tuesday-Friday 8am-5pm; Open Monday-Friday 8am-5pm; Open Monday-Friday 8am-5pm,True
Yuma County Clerk and Recorder Office,Yuma,310 Ash St,Wray,CO,80758.0,40.078048,-102.22058,Open Monday-Friday 8:30am-4:30pm; Open Monday-Friday 8:30am-4:30pm; Open Monday-Friday 8:30am-4:30pm,True
Yuma County Election Center,Yuma,130 E 3rd Ave,Yuma,CO,80759.0,40.123446,-102.72342,Not Open; Not Open; Open 24 hours every day starting Tuesday,True
Yuma County MV Branch Office,Yuma,910 S Main St,Yuma,CO,80759.0,40.116641,-102.72407,Open Tuesday and Thursday 8:30am-4pm; Open Tuesday and Thursday 8:30am-4pm; Open Tuesday and Thursday 8:30am-4pm,True
